[Satellite]
VERSION=1.1
NAME=GSAT0213 (PRN E04)
NICKNAME=GSAT0213 (PRN E04)
TLE1=1 41861U 16069C   18020.37229360  .00000066  00000-0  00000+0 0  9996
TLE2=2 41861  54.5792 186.2998 0001698 239.0478 120.9004  1.70473778  7326
